NORAD_CAT_ID,OBJECT_NAME,OBJECT_TYPE,EPOCH,MEAN_MOTION,ECCENTRICITY,INCLINATION,RA_OF_ASC_NODE,ARG_OF_PERICENTER,MEAN_ANOMALY,BSTAR,MEAN_MOTION_DOT,MEAN_MOTION_DDOT,TLE_LINE0,TLE_LINE1,TLE_LINE2,SEMIMAJOR_AXIS,PERIOD,APOGEE,PERIGEE,DECAYED
52542.0,STARLINK-3937,PAYLOAD,2023-02-22 08:54:11,15.08839245,0.0001399,53.2146,78.0313,91.2557,268.8596,0.00018333,2.631e-05,0.0,0 STARLINK-3937,1 52542U 22051K   23053.37096546  .00002631  00000-0  18333-3 0  9994,2 52542  53.2146  78.0313 0001399  91.2557 268.8596 15.08839245 43741,6917.883,95.438,540.716,538.78,0.0
52542.0,STARLINK-3937,PAYLOAD,2023-02-22 12:04:57,15.08844957,0.0001172,53.2146,77.4362,88.5267,271.5859,0.00046778,7.166e-05,0.0,0 STARLINK-3937,1 52542U 22051K   23053.50344381  .00007166  00000-0  46778-3 0  9994,2 52542  53.2146  77.4362 0001172  88.5267 271.5859 15.08844957 43697,6917.865,95.437,540.541,538.919,0.0
52542.0,STARLINK-3937,PAYLOAD,2023-02-22 18:26:30,15.08836174,0.0001472,53.2142,76.2464,89.7774,270.3387,8.0879e-05,9.99e-06,0.0,0 STARLINK-3937,1 52542U 22051K   23053.76840764  .00000999  00000-0  80879-4 0  9996,2 52542  53.2142  76.2464 0001472  89.7774 270.3387 15.08836174 43732,6917.892,95.438,540.775,538.739,0.0
52542.0,STARLINK-3937,PAYLOAD,2023-02-23 07:09:35,15.088404,0.0001405,53.2144,73.8679,89.8335,270.2818,0.00040424,6.151e-05,0.0,0 STARLINK-3937,1 52542U 22051K   23054.29832898  .00006151  00000-0  40424-3 0  9991,2 52542  53.2144  73.8679 0001405  89.8335 270.2818 15.08840400 43819,6917.879,95.438,540.716,538.772,0.0
52542.0,STARLINK-3937,PAYLOAD,2023-02-23 13:31:08,15.08844986,0.000135,53.214,72.6777,89.9405,270.1742,0.00066385,0.00010294,0.0,0 STARLINK-3937,1 52542U 22051K   23054.56328865  .00010294  00000-0  66385-3 0  9992,2 52542  53.2140  72.6777 0001350  89.9405 270.1742 15.08844986 43929,6917.865,95.437,540.664,538.796,0.0
52542.0,STARLINK-3937,PAYLOAD,2023-02-23 18:17:17,15.08836797,0.0001421,53.2146,71.7838,83.5648,276.5505,0.00030824,4.621e-05,0.0,0 STARLINK-3937,1 52542U 22051K   23054.76201105  .00004621  00000-0  30824-3 0  9997,2 52542  53.2146  71.7838 0001421  83.5648 276.5505 15.08836797 43952,6917.89,95.438,540.738,538.772,0.0
52542.0,STARLINK-3937,PAYLOAD,2023-02-24 07:00:22,15.0884694,0.0001396,53.215,69.4045,82.8302,277.2849,0.00045025,6.886e-05,0.0,0 STARLINK-3937,1 52542U 22051K   23055.29192913  .00006886  00000-0  45025-3 0  9996,2 52542  53.2150  69.4045 0001396  82.8302 277.2849 15.08846940 43962,6917.859,95.437,540.69,538.758,0.0
52542.0,STARLINK-3937,PAYLOAD,2023-02-24 18:08:04,15.08844736,0.0001307,53.2146,67.3239,80.6013,279.5127,0.00026665,3.959e-05,0.0,0 STARLINK-3937,1 52542U 22051K   23055.75560887  .00003959  00000-0  26665-3 0  9993,2 52542  53.2146  67.3239 0001307  80.6013 279.5127 15.08844736 44030,6917.866,95.437,540.635,538.827,0.0
52542.0,STARLINK-3937,PAYLOAD,2023-02-25 11:37:19,15.08840539,0.0001385,53.2156,64.0505,100.9533,259.1615,0.00015052,2.108e-05,0.0,0 STARLINK-3937,1 52542U 22051K   23056.48425200  .00002108  00000-0  15052-3 0  9996,2 52542  53.2156  64.0505 0001385 100.9533 259.1615 15.08840539 44213,6917.879,95.438,540.702,538.786,0.0
52542.0,STARLINK-3937,PAYLOAD,2023-02-25 17:58:52,15.08839596,0.0001347,53.2153,62.862,96.9604,263.1542,0.00013108,1.799e-05,0.0,0 STARLINK-3937,1 52542U 22051K   23056.74921352  .00001799  00000-0  13108-3 0  9999,2 52542  53.2153  62.8620 0001347  96.9604 263.1542 15.08839596 44186,6917.882,95.438,540.678,538.815,0.0
52542.0,STARLINK-3937,PAYLOAD,2023-02-26 08:17:19,15.088647,0.0001121,53.2154,60.1878,98.5452,261.5667,0.0010151,0.00015915,0.0,0 STARLINK-3937,1 52542U 22051K   23057.34536660  .00015915  00000-0  10151-2 0  9999,2 52542  53.2154  60.1878 0001121  98.5452 261.5667 15.08864700 44345,6917.805,95.436,540.445,538.894,0.0
52542.0,STARLINK-3937,PAYLOAD,2023-02-27 06:32:43,15.08848686,0.0001084,53.2149,56.0238,78.5815,281.5299,0.00036602,5.544e-05,0.0,0 STARLINK-3937,1 52542U 22051K   23058.27273033  .00005544  00000-0  36602-3 0  9991,2 52542  53.2149  56.0238 0001084  78.5815 281.5299 15.08848686 44485,6917.854,95.437,540.469,538.969,0.0
52542.0,STARLINK-3937,PAYLOAD,2023-02-27 09:43:29,15.08860042,0.0001092,53.2155,55.4291,77.6134,282.498,0.00075378,0.00011735,0.0,0 STARLINK-3937,1 52542U 22051K   23058.40520810  .00011735  00000-0  75378-3 0  9996,2 52542  53.2155  55.4291 0001092  77.6134 282.4980 15.08860042 44439,6917.819,95.436,540.44,538.929,0.0
52542.0,STARLINK-3937,PAYLOAD,2023-02-27 11:18:53,15.08877518,0.0001163,53.2157,55.1326,77.4535,282.6587,0.0020026,0.0003176,0.0,0 STARLINK-3937,1 52542U 22051K   23058.47144802  .00031760  00000-0  20026-2 0  9995,2 52542  53.2157  55.1326 0001163  77.4535 282.6587 15.08877518 44519,6917.766,95.435,540.435,538.826,0.0
52542.0,STARLINK-3937,PAYLOAD,2023-02-28 06:23:30,15.08865554,0.0001388,53.2169,51.5643,80.0813,280.0336,0.00061484,9.518e-05,0.0,0 STARLINK-3937,1 52542U 22051K   23059.26632007  .00009518  00000-0  61484-3 0  9992,2 52542  53.2169  51.5643 0001388  80.0813 280.0336 15.08865554 44636,6917.802,95.436,540.627,538.707,0.0
52542.0,STARLINK-3937,PAYLOAD,2023-02-28 11:09:38,15.08878317,0.0001561,53.2159,50.6711,88.031,272.0861,0.00098854,0.00015496,0.0,0 STARLINK-3937,1 52542U 22051K   23059.46503403  .00015496  00000-0  98854-3 0  9994,2 52542  53.2159  50.6711 0001561  88.0310 272.0861 15.08878317 44594,6917.763,95.435,540.708,538.548,0.0
52542.0,STARLINK-3937,PAYLOAD,2023-02-28 15:55:49,15.08809693,0.0001593,53.2163,49.7801,101.0039,259.1132,-0.0016475,-0.00026391,0.0,0 STARLINK-3937,1 52542U 22051K   23059.66376740 -.00026391  00000-0 -16475-2 0  9994,2 52542  53.2163  49.7801 0001593 101.0039 259.1132 15.08809693 44696,6917.973,95.439,540.94,538.736,0.0
52542.0,STARLINK-3937,PAYLOAD,2023-03-01 04:38:55,15.08811261,0.0001357,53.2162,47.4015,115.6769,244.4363,-0.00013319,-2.405e-05,0.0,0 STARLINK-3937,1 52542U 22051K   23060.19369646 -.00002405  00000-0 -13319-3 0  9996,2 52542  53.2162  47.4015 0001357 115.6769 244.4363 15.08811261 44772,6917.968,95.439,540.772,538.894,0.0
52542.0,STARLINK-3937,PAYLOAD,2023-03-01 15:46:38,15.08825843,0.0001291,53.216,45.3204,123.7559,236.3556,0.001801,0.0002848,0.0,0 STARLINK-3937,1 52542U 22051K   23060.65738708  .00028480  00000-0  18010-2 0  9997,2 52542  53.2160  45.3204 0001291 123.7559 236.3556 15.08825843 44844,6917.924,95.438,540.682,538.896,0.0
52542.0,STARLINK-3937,PAYLOAD,2023-03-02 10:51:15,15.0887338,0.0001328,53.2159,41.7519,126.5099,233.6016,0.0018019,0.00028532,0.0,0 STARLINK-3937,1 52542U 22051K   23061.45226067  .00028532  00000-0  18019-2 0  9993,2 52542  53.2159  41.7519 0001328 126.5099 233.6016 15.08873380 44897,6917.778,95.435,540.562,538.725,0.0
52542.0,STARLINK-3937,PAYLOAD,2023-03-03 07:31:15,15.08887808,0.0001251,53.2159,37.8865,121.8553,238.2561,0.002542,0.00040453,0.0,0 STARLINK-3937,1 52542U 22051K   23062.31337185  .00040453  00000-0  25420-2 0  9993,2 52542  53.2159  37.8865 0001251 121.8553 238.2561 15.08887808 45094,6917.734,95.435,540.465,538.734,0.0
52542.0,STARLINK-3937,PAYLOAD,2023-03-03 15:28:10,15.08859532,0.0001506,53.2156,36.3991,110.572,249.5434,0.0018736,0.00029672,0.0,0 STARLINK-3937,1 52542U 22051K   23062.64457060  .00029672  00000-0  18736-2 0  9996,2 52542  53.2156  36.3991 0001506 110.5720 249.5434 15.08859532 45142,6917.821,95.436,540.728,538.644,0.0
52542.0,STARLINK-3937,PAYLOAD,2023-03-04 05:46:38,15.08900515,0.000135,53.217,33.7226,101.8266,258.2877,0.0035798,0.00057242,0.0,0 STARLINK-3937,1 52542U 22051K   23063.24072160  .00057242  00000-0  35798-2 0  9998,2 52542  53.2170  33.7226 0001350 101.8266 258.2877 15.08900515 45163,6917.695,95.434,540.494,538.627,0.0
52542.0,STARLINK-3937,PAYLOAD,2023-03-04 21:40:29,15.08864578,0.0001585,53.2168,30.7493,106.7053,253.4113,0.0015684,0.00024778,0.0,0 STARLINK-3937,1 52542U 22051K   23063.90312384  .00024778  00000-0  15684-2 0  9996,2 52542  53.2168  30.7493 0001585 106.7053 253.4113 15.08864578 45338,6917.805,95.436,540.767,538.574,0.0
52542.0,STARLINK-3937,PAYLOAD,2023-03-05 04:02:03,15.0881959,0.0001149,53.2166,29.5583,99.1614,260.9508,0.001839,0.00029084,0.0,0 STARLINK-3937,1 52542U 22051K   23064.16809042  .00029084  00000-0  18390-2 0  9999,2 52542  53.2166  29.5583 0001149  99.1614 260.9508 15.08819590 45375,6917.943,95.439,540.603,539.013,0.0
52542.0,STARLINK-3937,PAYLOAD,2023-03-06 03:52:50,15.08877645,0.0001316,53.2164,25.0978,88.7842,271.3301,0.002624,0.00041764,0.0,0 STARLINK-3937,1 52542U 22051K   23065.16169488  .00041764  00000-0  26240-2 0  9995,2 52542  53.2164  25.0978 0001316  88.7842 271.3301 15.08877645 45524,6917.765,95.435,540.541,538.72,0.0
52542.0,STARLINK-3937,PAYLOAD,2023-03-06 21:22:05,15.0883781,7.73e-05,53.2179,21.8273,79.3935,280.7145,0.0006176,9.554e-05,0.0,0 STARLINK-3937,1 52542U 22051K   23065.89033693  .00009554  00000-0  61760-3 0  9991,2 52542  53.2179  21.8273 0000773  79.3935 280.7145 15.08837810 45561,6917.887,95.438,540.287,539.217,0.0
52542.0,STARLINK-3937,PAYLOAD,2023-03-07 03:43:37,15.08849627,5.02e-05,53.217,20.6395,100.152,259.9529,0.002144,0.00034008,0.0,0 STARLINK-3937,1 52542U 22051K   23066.15529736  .00034008  00000-0  21440-2 0  9991,2 52542  53.2170  20.6395 0000502 100.1520 259.9529 15.08849627 45672,6917.851,95.437,540.063,539.369,0.0
52542.0,STARLINK-3937,PAYLOAD,2023-03-07 21:12:52,15.08856511,6.34e-05,53.2161,17.3668,87.4287,272.6778,0.0016259,0.00025695,0.0,0 STARLINK-3937,1 52542U 22051K   23066.88393967  .00025695  00000-0  16259-2 0  9990,2 52542  53.2161  17.3668 0000634  87.4287 272.6778 15.08856511 45781,6917.83,95.437,540.134,539.256,0.0
52542.0,STARLINK-3937,PAYLOAD,2023-03-08 03:34:24,15.08862581,6.2e-05,53.2165,16.1787,42.3861,317.7179,0.0022344,0.00035474,0.0,0 STARLINK-3937,1 52542U 22051K   23067.14889869  .00035474  00000-0  22344-2 0  9999,2 52542  53.2165  16.1787 0000620  42.3861 317.7179 15.08862581 45754,6917.811,95.436,540.105,539.247,0.0
